{
    "links": {
        "self": "http://www.neowsapp.com/rest/v1/neo/3402197?api_key=iIulBulltgU6a56xZRHN4H3l9WmuAYTsLGpBGhQ2"
    },
    "id": "3402197",
    "neo_reference_id": "3402197",
    "name": "(2008 CX21)",
    "designation": "2008 CX21",
    "nasa_jpl_url": "http://ssd.jpl.nasa.gov/sbdb.cgi?sstr=3402197",
    "absolute_magnitude_h": 24.6,
    "estimated_diameter": {
        "kilometers": {
            "estimated_diameter_min": 0.0319561887,
            "estimated_diameter_max": 0.0714562102
        },
        "meters": {
            "estimated_diameter_min": 31.9561886721,
            "estimated_diameter_max": 71.4562101727
        },
        "miles": {
            "estimated_diameter_min": 0.0198566489,
            "estimated_diameter_max": 0.0444008168
        },
        "feet": {
            "estimated_diameter_min": 104.8431420431,
            "estimated_diameter_max": 234.436392583
        }
    },
    "is_potentially_hazardous_asteroid": false,
    "close_approach_data": [
        {
            "close_approach_date": "2008-02-09",
            "close_approach_date_full": "2008-Feb-09 07:46",
            "epoch_date_close_approach": 1202543160000,
            "relative_velocity": {
                "kilometers_per_second": "18.9433259571",
                "kilometers_per_hour": "68195.9734453937",
                "miles_per_hour": "42374.3258333336"
            },
            "miss_distance": {
                "astronomical": "0.0649697377",
                "lunar": "25.2732279653",
                "kilometers": "9719334.374378699",
                "miles": "6039314.3335120862"
            },
            "orbiting_body": "Earth"
        }
    ],
    "orbital_data": {
        "orbit_id": "7",
        "orbit_determination_date": "2017-04-06 09:04:29",
        "first_observation_date": "2008-02-07",
        "last_observation_date": "2008-02-09",
        "data_arc_in_days": 2,
        "observations_used": 21,
        "orbit_uncertainty": "9",
        "minimum_orbit_intersection": ".0647619",
        "jupiter_tisserand_invariant": "3.616",
        "epoch_osculation": "2454505.5",
        "eccentricity": ".5112164942115047",
        "semi_major_axis": "1.926662243466182",
        "inclination": "28.91079958271667",
        "ascending_node_longitude": "136.7052293334138",
        "orbital_period": "976.8025998506729",
        "perihelion_distance": ".9417207258317277",
        "perihelion_argument": "48.23925986430536",
        "aphelion_distance": "2.911603761100636",
        "perihelion_time": "2454541.708705064242",
        "mean_anomaly": "346.6553039220823",
        "mean_motion": ".3685493876193966",
        "equinox": "J2000",
        "orbit_class": {
            "orbit_class_type": "APO",
            "orbit_class_description": "Near-Earth asteroid orbits which cross the Earth’s orbit similar to that of 1862 Apollo",
            "orbit_class_range": "a (semi-major axis) > 1.0 AU; q (perihelion) < 1.017 AU"
        }
    },
    "is_sentry_object": false
}